{
  "type": "FeatureCollection",
  "features": [
    {
      "type": "Feature",
      "properties": {
        "norad_id": 35616,
        "name": "IRIDIUM 33 DEB",
        "group": "iridium-33-debris",
        "lat": 27.27980660851028,
        "lon": 166.77632168997965,
        "alt_km": 618.7857525738063,
        "timestamp": "2025-12-06T09:34:17.299681+00:00",
        "meta_object_name": "IRIDIUM 33 DEB",
        "meta_object_id": "1997-051QN",
        "meta_epoch": "2025-12-01T18:38:49.911648",
        "meta_mean_motion": 14.81359224,
        "meta_eccentricity": 0.00086191,
        "meta_inclination": 86.3548,
        "meta_ra_of_asc_node": 350.7677,
        "meta_arg_of_pericenter": 204.4295,
        "meta_mean_anomaly": 155.6519,
        "meta_ephemeris_type": 0,
        "meta_classification_type": "U",
        "meta_norad_cat_id": 35616,
        "meta_element_set_no": 999,
        "meta_rev_at_epoch": 87412,
        "meta_bstar": 0.0016385024,
        "meta_mean_motion_dot": 0.00012841,
        "meta_mean_motion_ddot": 0,
        "tle_line1": "1 35616U 97051QN  25335.77696657  .00012841  00000+0  16385-2 0  9994",
        "tle_line2": "2 35616  86.3548 350.7677 0008619 204.4295 155.6519 14.81359224874125"
      },
      "geometry": {
        "type": "Point",
        "coordinates": [
          166.77632168997965,
          27.27980660851028
        ]
      }
    },
    {
      "type": "Feature",
      "properties": {
        "norad_id": 35618,
        "name": "IRIDIUM 33 DEB",
        "group": "iridium-33-debris",
        "lat": -49.26891379464822,
        "lon": -179.4639494173773,
        "alt_km": 746.5216702956186,
        "timestamp": "2025-12-06T09:34:17.299691+00:00",
        "meta_object_name": "IRIDIUM 33 DEB",
        "meta_object_id": "1997-051QQ",
        "meta_epoch": "2025-12-05T07:42:53.148672",
        "meta_mean_motion": 14.52258119,
        "meta_eccentricity": 0.00302089,
        "meta_inclination": 86.3407,
        "meta_ra_of_asc_node": 356.7447,
        "meta_arg_of_pericenter": 46.3254,
        "meta_mean_anomaly": 314.0448,
        "meta_ephemeris_type": 0,
        "meta_classification_type": "U",
        "meta_norad_cat_id": 35618,
        "meta_element_set_no": 999,
        "meta_rev_at_epoch": 65286,
        "meta_bstar": 0.00091388234,
        "meta_mean_motion_dot": 3.753e-05,
        "meta_mean_motion_ddot": 0,
        "tle_line1": "1 35618U 97051QQ  25339.32144848  .00003753  00000+0  91388-3 0  9990",
        "tle_line2": "2 35618  86.3407 356.7447 0030208  46.3254 314.0448 14.52258119652865"
      },
      "geometry": {
        "type": "Point",
        "coordinates": [
          -179.4639494173773,
          -49.26891379464822
        ]
      }
    },
    {
      "type": "Feature",
      "properties": {
        "norad_id": 35620,
        "name": "IRIDIUM 33 DEB",
        "group": "iridium-33-debris",
        "lat": 1.3450152508565654,
        "lon": 40.04228844308884,
        "alt_km": 787.7195541159381,
        "timestamp": "2025-12-06T09:34:17.299701+00:00",
        "meta_object_name": "IRIDIUM 33 DEB",
        "meta_object_id": "1997-051QS",
        "meta_epoch": "2025-12-05T22:42:22.519008",
        "meta_mean_motion": 14.37682672,
        "meta_eccentricity": 0.01438041,
        "meta_inclination": 86.3879,
        "meta_ra_of_asc_node": 220.3181,
        "meta_arg_of_pericenter": 281.3486,
        "meta_mean_anomaly": 77.1585,
        "meta_ephemeris_type": 0,
        "meta_classification_type": "U",
        "meta_norad_cat_id": 35620,
        "meta_element_set_no": 999,
        "meta_rev_at_epoch": 59868,
        "meta_bstar": 0.0082948614,
        "meta_mean_motion_dot": 0.0002819,
        "meta_mean_motion_ddot": 0,
        "tle_line1": "1 35620U 97051QS  25339.94609397  .00028190  00000+0  82949-2 0  9990",
        "tle_line2": "2 35620  86.3879 220.3181 0143804 281.3486  77.1585 14.37682672598683"
      },
      "geometry": {
        "type": "Point",
        "coordinates": [
          40.04228844308884,
          1.3450152508565654
        ]
      }
    },
    {
      "type": "Feature",
      "properties": {
        "norad_id": 35622,
        "name": "IRIDIUM 33 DEB",
        "group": "iridium-33-debris",
        "lat": -16.787783050852724,
        "lon": 87.8722239086026,
        "alt_km": 568.4252289561846,
        "timestamp": "2025-12-06T09:34:17.299711+00:00",
        "meta_object_name": "IRIDIUM 33 DEB",
        "meta_object_id": "1997-051QU",
        "meta_epoch": "2025-12-05T06:13:24.261312",
        "meta_mean_motion": 15.03282895,
        "meta_eccentricity": 0.00108243,
        "meta_inclination": 86.2057,
        "meta_ra_of_asc_node": 267.2847,
        "meta_arg_of_pericenter": 9.444,
        "meta_mean_anomaly": 144.1334,
        "meta_ephemeris_type": 0,
        "meta_classification_type": "U",
        "meta_norad_cat_id": 35622,
        "meta_element_set_no": 999,
        "meta_rev_at_epoch": 87247,
        "meta_bstar": 0.0080362774,
        "meta_mean_motion_dot": 0.00110602,
        "meta_mean_motion_ddot": 0,
        "tle_line1": "1 35622U 97051QU  25339.25930858  .00110602  00000+0  80363-2 0  9993",
        "tle_line2": "2 35622  86.2057 267.2847 0010824   9.4440 144.1334 15.03282895872471"
      },
      "geometry": {
        "type": "Point",
        "coordinates": [
          87.8722239086026,
          -16.787783050852724
        ]
      }
    },
    {
      "type": "Feature",
      "properties": {
        "norad_id": 35628,
        "name": "IRIDIUM 33 DEB",
        "group": "iridium-33-debris",
        "lat": 40.12738909637155,
        "lon": -171.17390261729494,
        "alt_km": 671.7946338936863,
        "timestamp": "2025-12-06T09:34:17.299721+00:00",
        "meta_object_name": "IRIDIUM 33 DEB",
        "meta_object_id": "1997-051RA",
        "meta_epoch": "2025-12-04T09:28:36.488064",
        "meta_mean_motion": 14.67394134,
        "meta_eccentricity": 0.001144,
        "meta_inclination": 86.3576,
        "meta_ra_of_asc_node": 12.797,
        "meta_arg_of_pericenter": 12.0998,
        "meta_mean_anomaly": 348.0488,
        "meta_ephemeris_type": 0,
        "meta_classification_type": "U",
        "meta_norad_cat_id": 35628,
        "meta_element_set_no": 999,
        "meta_rev_at_epoch": 86324,
        "meta_bstar": 0.0032445,
        "meta_mean_motion_dot": 0.00018408,
        "meta_mean_motion_ddot": 0,
        "tle_line1": "1 35628U 97051RA  25338.39486676  .00018408  00000+0  32445-2 0  9996",
        "tle_line2": "2 35628  86.3576  12.7970 0011440  12.0998 348.0488 14.67394134863246"
      },
      "geometry": {
        "type": "Point",
        "coordinates": [
          -171.17390261729494,
          40.12738909637155
        ]
      }
    },
    {
      "type": "Feature",
      "properties": {
        "norad_id": 35631,
        "name": "IRIDIUM 33 DEB",
        "group": "iridium-33-debris",
        "lat": 43.55498000351517,
        "lon": -159.75495748109626,
        "alt_km": 718.1396777835798,
        "timestamp": "2025-12-06T09:34:17.299736+00:00",
        "meta_object_name": "IRIDIUM 33 DEB",
        "meta_object_id": "1997-051RD",
        "meta_epoch": "2025-12-03T09:41:09.224736",
        "meta_mean_motion": 14.47269337,
        "meta_eccentricity": 0.00180664,
        "meta_inclination": 86.3684,
        "meta_ra_of_asc_node": 24.9956,
        "meta_arg_of_pericenter": 146.4986,
        "meta_mean_anomaly": 234.0079,
        "meta_ephemeris_type": 0,
        "meta_classification_type": "U",
        "meta_norad_cat_id": 35631,
        "meta_element_set_no": 999,
        "meta_rev_at_epoch": 87062,
        "meta_bstar": 0.0005063782,
        "meta_mean_motion_dot": 1.875e-05,
        "meta_mean_motion_ddot": 0,
        "tle_line1": "1 35631U 97051RD  25337.40357899  .00001875  00000+0  50638-3 0  9990",
        "tle_line2": "2 35631  86.3684  24.9956 0018066 146.4986 234.0079 14.47269337870623"
      },
      "geometry": {
        "type": "Point",
        "coordinates": [
          -159.75495748109626,
          43.55498000351517
        ]
      }
    },
    {
      "type": "Feature",
      "properties": {
        "norad_id": 35680,
        "name": "IRIDIUM 33 DEB",
        "group": "iridium-33-debris",
        "lat": -8.77854392363968,
        "lon": 23.728352150841136,
        "alt_km": 760.0238685887389,
        "timestamp": "2025-12-06T09:34:17.299756+00:00",
        "meta_object_name": "IRIDIUM 33 DEB",
        "meta_object_id": "1997-051RJ",
        "meta_epoch": "2025-12-01T22:00:09.279648",
        "meta_mean_motion": 14.20616647,
        "meta_eccentricity": 0.01501261,
        "meta_inclination": 86.103,
        "meta_ra_of_asc_node": 26.3138,
        "meta_arg_of_pericenter": 313.2693,
        "meta_mean_anomaly": 168.1986,
        "meta_ephemeris_type": 0,
        "meta_classification_type": "U",
        "meta_norad_cat_id": 35680,
        "meta_element_set_no": 999,
        "meta_rev_at_epoch": 60547,
        "meta_bstar": 0.0036692718,
        "meta_mean_motion_dot": 8.864e-05,
        "meta_mean_motion_ddot": 0,
        "tle_line1": "1 35680U 97051RJ  25335.91677407  .00008864  00000+0  36693-2 0  9997",
        "tle_line2": "2 35680  86.1030  26.3138 0150126 313.2693 168.1986 14.20616647605475"
      },
      "geometry": {
        "type": "Point",
        "coordinates": [
          23.728352150841136,
          -8.77854392363968
        ]
      }
    }
  ]
}